OBJECT_NAME,OBJECT_ID,EPOCH,MEAN_MOTION,ECCENTRICITY,INCLINATION,RA_OF_ASC_NODE,ARG_OF_PERICENTER,MEAN_ANOMALY,EPHEMERIS_TYPE,CLASSIFICATION_TYPE,NORAD_CAT_ID,ELEMENT_SET_NO,REV_AT_EPOCH,BSTAR,MEAN_MOTION_DOT,MEAN_MOTION_DDOT
IRIDIUM 156,2018-061H,2026-07-07T01:42:34.252992,14.34220359,.0001763,86.3941,48.4133,90.1320,270.0078,0,U,43576,999,41622,.54486E-4,.172E-5,0
IRIDIUM 164,2018-061J,2026-07-07T02:55:38.372160,14.34218090,.0002287,86.3943,48.4321,89.5172,270.6286,0,U,43577,999,41627,.35037E-5,.3E-6,0
IRIDIUM 159,2018-061K,2026-07-07T00:29:30.352416,14.34212534,.0002491,86.3956,48.4124,92.3377,267.8104,0,U,43578,999,41622,.59818E-4,.187E-5,0
IRIDIUM 180,2019-002A,2026-07-07T08:51:06.943104,14.34217062,.0002266,86.3985,345.1599,91.1242,269.0213,0,U,43922,999,39188,.53909E-4,.171E-5,0
IRIDIUM 176,2019-002B,2026-07-07T09:55:21.405216,14.72241969,.0002354,86.6103,345.0819,88.6688,271.4799,0,U,43923,999,40222,.10387E-3,.679E-5,0
IRIDIUM 168,2019-002C,2026-07-07T10:22:26.642784,14.34217652,.0002229,86.3986,345.2112,90.5286,269.6165,0,U,43924,999,39187,.92597E-5,.46E-6,0
IRIDIUM 173,2019-002D,2026-07-07T10:04:10.835040,14.34217811,.0002157,86.3983,345.1045,90.6699,269.4744,0,U,43925,999,39185,.33451E-4,.113E-5,0
IRIDIUM 169,2019-002E,2026-07-07T00:08:44.092896,14.38612974,.0001693,86.4219,16.9051,95.1525,264.9867,0,U,43926,999,39307,.70386E-4,.235E-5,0
IRIDIUM 172,2019-002F,2026-07-07T09:55:02.854272,14.34217742,.0002156,86.3984,345.1158,88.0621,272.0821,0,U,43927,999,39186,.68017E-4,.21E-5,0
IRIDIUM 175,2019-002G,2026-07-07T05:43:22.846368,14.43624281,.0004794,86.4515,282.1398,131.4423,228.7190,0,U,43928,999,40187,.78712E-4,.287E-5,0
IRIDIUM 171,2019-002H,2026-07-07T09:27:38.867040,14.34216858,.0002188,86.3994,345.4318,95.0226,265.1220,0,U,43929,999,39185,.72858E-4,.224E-5,0
IRIDIUM 170,2019-002J,2026-07-06T22:39:07.604928,14.72241895,.0002363,86.6102,345.2804,85.1782,274.9705,0,U,43930,999,40216,.10825E-3,.707E-5,0
IRIDIUM 167,2019-002K,2026-07-07T09:18:30.875040,14.34216869,.0002189,86.3984,345.1483,100.2055,259.9388,0,U,43931,999,39185,.64891E-4,.202E-5,0
IRIDIUM 181,2023-068S,2026-07-07T03:25:24.879648,14.43309318,.0002474,86.4481,48.4465,85.5101,274.6382,0,U,56726,999,16531,.62832E-4,.232E-5,0
IRIDIUM 177,2023-068T,2026-07-07T08:01:11.830080,14.80020492,.0002133,86.1980,319.2247,91.6755,268.4711,0,U,56727,999,16934,.1231E-3,.957E-5,0
IRIDIUM 174,2023-068U,2026-07-07T09:46:23.549664,14.72250857,.0002114,86.6111,345.2360,82.0944,278.0513,0,U,56728,999,16899,.1087E-3,.71E-5,0
IRIDIUM 178,2023-068V,2026-07-07T11:00:01.821024,14.80023948,.0002311,86.6532,16.8871,87.1357,273.0129,0,U,56729,999,16936,.93183E-4,.731E-5,0
IRIDIUM 179,2023-068W,2026-07-06T23:30:51.174144,14.80027672,.0002264,86.6766,26.1256,90.3091,269.8390,0,U,56730,999,16929,.10874E-3,.848E-5,0
